0 BREEZE-M DEB
1 38569U 08011Q   13280.27745848  .00000042  00000-0  00000+0 0  2156
2 38569 048.5780 215.7371 6259241 224.9321 350.2571 03.00541262 28324
0 BREEZE-M DEB
1 38569U 08011Q   13283.27132553  .00000045  00000-0  00000+0 0  2166
2 38569 048.5601 214.7647 6256621 225.7762 349.8840 03.00533440 28410
0 BREEZE-M DEB
1 38569U 08011Q   13286.26477528  .00000019  00000-0  00000+0 0  2174
2 38569 048.5609 213.8304 6256874 226.6063 348.9066 03.00528222 28504
0 BREEZE-M DEB
1 38569U 08011Q   13294.25200718  .00000010  00000-0  00000+0 0  2189
2 38569 048.5454 211.3072 6252129 228.8176 350.8485 03.00500417 28744
